OBJECT_NAME,OBJECT_ID,EPOCH,MEAN_MOTION,ECCENTRICITY,INCLINATION,RA_OF_ASC_NODE,ARG_OF_PERICENTER,MEAN_ANOMALY,EPHEMERIS_TYPE,CLASSIFICATION_TYPE,NORAD_CAT_ID,ELEMENT_SET_NO,REV_AT_EPOCH,BSTAR,MEAN_MOTION_DOT,MEAN_MOTION_DDOT
ASNARO-2,2018-007A,2026-06-30T18:59:57.181920,15.22425156,.00015667,97.3968,188.5061,90.6962,269.4454,0,U,43152,999,46948,.12683708E-3,.2862E-4,0
JILIN-1 07,2018-008E,2026-07-01T22:58:58.342944,15.34970936,.00083659,97.1760,202.4936,19.0209,341.1346,0,U,43159,999,46726,.31820492E-3,.10732E-3,0
JILIN-1 08,2018-008F,2026-07-01T23:13:49.465632,15.33879187,.00069419,97.1795,201.8041,38.1031,322.0702,0,U,43160,999,46721,.21388472E-3,.6937E-4,0
S-NET D,2018-014G,2026-07-01T18:40:17.818464,15.16808618,.00073282,97.5352,87.4779,340.7390,19.3565,0,U,43186,999,46097,.27642971E-3,.5368E-4,0
S-NET B,2018-014H,2026-07-01T18:57:11.998944,15.16779760,.00077585,97.5356,87.4766,334.8339,25.2515,0,U,43187,999,46097,.2869583E-3,.5571E-4,0
S-NET A,2018-014J,2026-07-01T18:38:33.893952,15.16817199,.00076973,97.5366,87.6754,335.7806,24.3064,0,U,43188,999,46097,.28067577E-3,.5453E-4,0
S-NET C,2018-014K,2026-07-01T19:02:53.356704,15.16771644,.0008831,97.5385,87.7690,325.7924,34.2739,0,U,43189,999,45952,.29120731E-3,.5654E-4,0
PAZ,2018-020A,2026-07-01T23:50:16.189152,15.19155745,.00017168,97.4449,190.1683,87.9660,272.1772,0,U,43215,999,46325,.97092944E-4,.1973E-4,0
GOES 17,2018-022A,2026-07-01T22:09:31.632192,1.00271957,.00007375,0.9725,85.4803,39.6239,37.7514,0,U,43226,999,3057,0,-.173E-5,0
LKW-4,2018-025A,2026-07-01T22:24:52.072992,15.63478371,.00026583,97.6346,354.9753,227.8536,132.2496,0,U,43236,999,46233,.53891129E-3,.49875E-3,0
ZHUHAI-1 OVS-02,2018-040B,2026-07-01T23:51:25.043040,15.25222729,.00035884,97.0378,199.3464,170.4074,189.7234,0,U,43440,999,45497,.36331881E-3,.9065E-4,0
ZHUHAI-1 OHS-02,2018-040C,2026-07-01T23:17:53.688192,15.26096486,.00099327,97.0359,206.2788,166.2169,193.9344,0,U,43441,999,11653,.36108471E-3,.926E-4,0
GAOFEN-6,2018-048A,2026-07-01T13:46:19.564320,14.76366587,.00118189,98.0968,245.2430,119.7907,240.4480,0,U,43484,999,43551,-.4446977E-5,-.83E-6,0
LUOJIA-1 01,2018-048B,2026-07-01T23:24:12.057120,14.87338217,.00104838,97.8107,260.9254,76.1411,284.0971,0,U,43485,999,43641,.20913919E-3,.1836E-4,0
PAKTES 1A,2018-056A,2026-07-01T22:56:30.958368,14.99160683,.00207224,98.1281,340.0718,60.4594,299.8691,0,U,43529,999,43413,.38181219E-3,.4601E-4,0
PRSS-1,2018-056B,2026-07-01T21:48:34.278912,14.82010084,.00014199,97.7820,250.3707,77.2080,282.9292,0,U,43530,999,43061,.64850123E-4,.464E-5,0
HAIYANG-1C,2018-068A,2026-07-01T23:10:36.766848,14.34182657,.00118984,98.5192,255.0598,54.9977,305.2323,0,U,43609,999,40920,.15232837E-4,-.1E-7,0
SSTL S1-4,2018-071A,2026-07-01T22:26:54.004128,14.96192636,.00023277,97.5015,53.9352,101.8433,258.3050,0,U,43618,999,42514,.16817762E-3,.1841E-4,0
HAIYANG-2B,2018-081A,2026-07-01T23:03:42.121152,13.79307857,.00003258,99.3278,191.4939,167.4880,192.6280,0,U,43655,999,38696,-.8466286E-4,-.131E-5,0
CFOSAT,2018-083A,2026-07-01T22:34:52.395744,15.16466320,.00022361,97.3602,187.0370,81.5792,278.5695,0,U,43662,999,42467,.20250826E-3,.3876E-4,0
TEN-KOH,2018-084G,2026-07-01T18:29:30.068160,15.02988661,.00106686,98.0738,15.7477,71.7153,288.5231,0,U,43677,999,41835,.15337861E-3,.1998E-4,0
DIWATA-2B,2018-084H,2026-07-01T23:22:56.065728,15.00516224,.00131047,98.1198,19.8281,124.3132,235.9333,0,U,43678,999,41843,.18788883E-3,.2306E-4,0
STARS-AO,2018-084J,2026-07-01T20:20:31.968672,15.17214285,.00035548,98.0482,37.7226,107.1078,253.0544,0,U,43679,999,41969,.34418763E-3,.677E-4,0
AUTCUBE 2,2018-084K,2026-07-01T11:25:59.647584,15.10183327,.00088945,98.0690,29.4083,4.2761,355.8541,0,U,43681,999,41908,.22752788E-3,.3647E-4,0
METOP-C,2018-087A,2026-07-01T22:04:28.097760,14.21516013,.00021481,98.6638,242.2537,110.5867,249.5541,0,U,43689,999,39692,.68302202E-4,.106E-5,0
ES'HAIL 2,2018-090A,2026-07-01T20:59:43.196928,1.00272828,.0002241,0.0194,26.3749,108.6872,125.5756,0,U,43700,999,2782,0,.155E-5,0
MOHAMMED VI-B,2018-095A,2026-07-01T22:40:12.126720,14.77064784,.00016022,97.9558,255.0663,98.2192,261.9200,0,U,43717,999,41036,.34408741E-4,.192E-5,0
HYSIS,2018-096A,2026-07-01T21:30:22.748832,14.78647014,.00018769,97.9839,249.5284,89.6414,270.5012,0,U,43719,999,40959,.18023971E-3,.1269E-4,0
COSMOS 2530 (RODNIK-S 16),2018-097A,2026-07-01T22:43:19.183584,12.42882027,.00195802,82.5121,213.1207,8.0972,352.0420,0,U,43751,999,34412,.99512622E-3,.148E-5,0
