ASNARO-2                
1 43152U 18007A   26181.79163405  .00002862  00000+0  12684-3 0  9995
2 43152  97.3968 188.5061 0001566  90.6962 269.4454 15.22425156469486
JILIN-1 07              
1 43159U 18008E   26182.95761971  .00010732  00000+0  31820-3 0  9992
2 43159  97.1760 202.4936 0008365  19.0209 341.1346 15.34970936467267
JILIN-1 08              
1 43160U 18008F   26182.96793363  .00006937  00000+0  21388-3 0  9995
2 43160  97.1795 201.8041 0006941  38.1031 322.0702 15.33879187467214
S-NET D                 
1 43186U 18014G   26182.77798401  .00005368  00000+0  27643-3 0  9994
2 43186  97.5352  87.4779 0007328 340.7390  19.3565 15.16808618460972
S-NET B                 
1 43187U 18014H   26182.78972221  .00005571  00000+0  28696-3 0  9995
2 43187  97.5356  87.4766 0007758 334.8339  25.2515 15.16779760460973
S-NET A                 
1 43188U 18014J   26182.77678118  .00005453  00000+0  28068-3 0  9995
2 43188  97.5366  87.6754 0007697 335.7806  24.3064 15.16817199460973
S-NET C                 
1 43189U 18014K   26182.79367311  .00005654  00000+0  29121-3 0  9992
2 43189  97.5385  87.7690 0008831 325.7924  34.2739 15.16771644459528
PAZ                     
1 43215U 18020A   26182.99324293  .00001973  00000+0  97093-4 0  9997
2 43215  97.4449 190.1683 0001716  87.9660 272.1772 15.19155745463254
GOES 17                 
1 43226U 18022A   26182.92328278 -.00000173  00000+0  00000+0 0  9990
2 43226   0.9725  85.4803 0000737  39.6239  37.7514  1.00271957 30573
LKW-4                   
1 43236U 18025A   26182.93393603  .00049875  00000+0  53891-3 0  9990
2 43236  97.6346 354.9753 0002658 227.8536 132.2496 15.63478371462335
ZHUHAI-1 OVS-02         
1 43440U 18040B   26182.99403985  .00009065  00000+0  36332-3 0  9993
2 43440  97.0378 199.3464 0003588 170.4074 189.7234 15.25222729454974
ZHUHAI-1 OHS-02         
1 43441U 18040C   26182.97076028  .00009260  00000+0  36108-3 0  9994
2 43441  97.0359 206.2788 0009932 166.2169 193.9344 15.26096486116534
GAOFEN-6                
1 43484U 18048A   26182.57383755 -.00000083  00000+0 -44470-5 0  9992
2 43484  98.0968 245.2430 0011818 119.7907 240.4480 14.76366587435511
LUOJIA-1 01             
1 43485U 18048B   26182.97513955  .00001836  00000+0  20914-3 0  9994
2 43485  97.8107 260.9254 0010483  76.1411 284.0971 14.87338217436415
PAKTES 1A               
1 43529U 18056A   26182.95591387  .00004601  00000+0  38181-3 0  9993
2 43529  98.1281 340.0718 0020722  60.4594 299.8691 14.99160683434134
PRSS-1                  
1 43530U 18056B   26182.90873008  .00000464  00000+0  64850-4 0  9999
2 43530  97.7820 250.3707 0001419  77.2080 282.9292 14.82010084430619
HAIYANG-1C              
1 43609U 18068A   26182.96570332 -.00000001  00000+0  15233-4 0  9998
2 43609  98.5192 255.0598 0011898  54.9977 305.2323 14.34182657409204
SSTL S1-4               
1 43618U 18071A   26182.93534727  .00001841  00000+0  16818-3 0  9998
2 43618  97.5015  53.9352 0002327 101.8433 258.3050 14.96192636425148
HAIYANG-2B              
1 43655U 18081A   26182.96090418 -.00000131  00000+0 -84663-4 0  9994
2 43655  99.3278 191.4939 0000325 167.4880 192.6280 13.79307857386963
CFOSAT                  
1 43662U 18083A   26182.94088421  .00003876  00000+0  20251-3 0  9992
2 43662  97.3602 187.0370 0002236  81.5792 278.5695 15.16466320424670
TEN-KOH                 
1 43677U 18084G   26182.77048690  .00001998  00000+0  15338-3 0  9997
2 43677  98.0738  15.7477 0010668  71.7153 288.5231 15.02988661418356
DIWATA-2B               
1 43678U 18084H   26182.97426002  .00002306  00000+0  18789-3 0  9994
2 43678  98.1198  19.8281 0013104 124.3132 235.9333 15.00516224418434
STARS-AO                
1 43679U 18084J   26182.84759223  .00006770  00000+0  34419-3 0  9992
2 43679  98.0482  37.7226 0003554 107.1078 253.0544 15.17214285419698
AUTCUBE 2               
1 43681U 18084K   26182.47638481  .00003647  00000+0  22753-3 0  9994
2 43681  98.0690  29.4083 0008894   4.2761 355.8541 15.10183327419085
METOP-C                 
1 43689U 18087A   26182.91976965  .00000106  00000+0  68302-4 0  9994
2 43689  98.6638 242.2537 0002148 110.5867 249.5541 14.21516013396923
ES'HAIL 2               
1 43700U 18090A   26182.87480552  .00000155  00000+0  00000+0 0  9999
2 43700   0.0194  26.3749 0002241 108.6872 125.5756  1.00272828 27822
MOHAMMED VI-B           
1 43717U 18095A   26182.94458480  .00000192  00000+0  34409-4 0  9991
2 43717  97.9558 255.0663 0001602  98.2192 261.9200 14.77064784410366
HYSIS                   
1 43719U 18096A   26182.89609663  .00001269  00000+0  18024-3 0  9999
2 43719  97.9839 249.5284 0001876  89.6414 270.5012 14.78647014409595
COSMOS 2530 (RODNIK-S *)
1 43751U 18097A   26182.94674981  .00000148  00000+0  99513-3 0  9994
2 43751  82.5121 213.1207 0019580   8.0972 352.0420 12.42882027344122
